[{"OBJECT_NAME":"SWARM B","OBJECT_ID":"2013-067A","EPOCH":"2026-03-09T22:20:48.706656","MEAN_MOTION":15.27862638,"ECCENTRICITY":0.00036996,"INCLINATION":87.749,"RA_OF_ASC_NODE":12.4162,"ARG_OF_PERICENTER":86.3179,"MEAN_ANOMALY":273.8493,"EPHEMERIS_TYPE":0,"CLASSIFICATION_TYPE":"U","NORAD_CAT_ID":39451,"ELEMENT_SET_NO":999,"REV_AT_EPOCH":66808,"BSTAR":0.00020534236,"MEAN_MOTION_DOT":5.616e-5,"MEAN_MOTION_DDOT":0},{"OBJECT_NAME":"STARLINK-30478","OBJECT_ID":"2023-146W","EPOCH":"2026-03-09T22:00:01.999584","MEAN_MOTION":15.05945063,"ECCENTRICITY":0.00013264,"INCLINATION":42.9997,"RA_OF_ASC_NODE":311.5054,"ARG_OF_PERICENTER":285.7723,"MEAN_ANOMALY":206.7337,"EPHEMERIS_TYPE":0,"CLASSIFICATION_TYPE":"U","NORAD_CAT_ID":57911,"ELEMENT_SET_NO":999,"REV_AT_EPOCH":552,"BSTAR":0.11273641,"MEAN_MOTION_DOT":0.01842676,"MEAN_MOTION_DDOT":0}]
